{"type": "FeatureCollection", "features": [ {"type": "Feature", "properties": {"norad_id": 43010, "name": "FENGYUN 3D", "group": "weather", "lat": -77.57380490153854, "lon": -1.83206439259745, "alt_km": 833.7623194527505, "timestamp": "2025-12-11T22:43:46.913424+00:00", "meta": {"OBJECT_NAME": "FENGYUN 3D", "OBJECT_ID": "2017-072A", "EPOCH": "2025-12-11T14:39:19.109376", "MEAN_MOTION": 14.19683676, "ECCENTRICITY": 8.805e-05, "INCLINATION": 98.9894, "RA_OF_ASC_NODE": 311.9037, "ARG_OF_PERICENTER": 186.2777, "MEAN_ANOMALY": 173.8387, "EPHEMERIS_TYPE": 0, "CLASSIFICATION_TYPE": "U", "NORAD_CAT_ID": 43010, "ELEMENT_SET_NO": 999, "REV_AT_EPOCH": 41837, "BSTAR": 0.00019779859, "MEAN_MOTION_DOT": 3.72e-06, "MEAN_MOTION_DDOT": 0}, "tle": {"line1": "1 43010U 17072A   25345.61063784  .00000372  00000+0  19780-3 0  9998", "line2": "2 43010  98.9894 311.9037 0000880 186.2777 173.8387 14.19683676418376"}}, "geometry": {"type": "Point", "coordinates": [-1.83206439259745, -77.57380490153854]}}, {"type": "Feature", "properties": {"norad_id": 43013, "name": "NOAA 20 (JPSS-1)", "group": "weather", "lat": 69.48863999812498, "lon": -102.08696003844469, "alt_km": 818.6996811451709, "timestamp": "2025-12-11T22:43:46.913436+00:00", "meta": {"OBJECT_NAME": "NOAA 20 (JPSS-1)", "OBJECT_ID": "2017-073A", "EPOCH": "2025-12-11T13:56:11.248800", "MEAN_MOTION": 14.19525254, "ECCENTRICITY": 0.00021511, "INCLINATION": 98.7597, "RA_OF_ASC_NODE": 281.8901, "ARG_OF_PERICENTER": 88.886, "MEAN_ANOMALY": 271.2562, "EPHEMERIS_TYPE": 0, "CLASSIFICATION_TYPE": "U", "NORAD_CAT_ID": 43013, "ELEMENT_SET_NO": 999, "REV_AT_EPOCH": 41785, "BSTAR": 0.00010536206, "MEAN_MOTION_DOT": 1.78e-06, "MEAN_MOTION_DDOT": 0}, "tle": {"line1": "1 43013U 17073A   25345.58068575  .00000178  00000+0  10536-3 0  9995", "line2": "2 43013  98.7597 281.8901 0002151  88.8860 271.2562 14.19525254417852"}}, "geometry": {"type": "Point", "coordinates": [-102.08696003844469, 69.48863999812498]}}, {"type": "Feature", "properties": {"norad_id": 43226, "name": "GOES 17", "group": "weather", "lat": -0.41062414105392137, "lon": -27.62176698916859, "alt_km": 35778.26093729834, "timestamp": "2025-12-11T22:43:46.913450+00:00", "meta": {"OBJECT_NAME": "GOES 17", "OBJECT_ID": "2018-022A", "EPOCH": "2025-12-11T13:05:10.006944", "MEAN_MOTION": 1.00271649, "ECCENTRICITY": 0.00033181, "INCLINATION": 0.4571, "RA_OF_ASC_NODE": 89.1199, "ARG_OF_PERICENTER": 187.8173, "MEAN_ANOMALY": 270.3648, "EPHEMERIS_TYPE": 0, "CLASSIFICATION_TYPE": "U", "NORAD_CAT_ID": 43226, "ELEMENT_SET_NO": 999, "REV_AT_EPOCH": 2854, "BSTAR": 0, "MEAN_MOTION_DOT": -1.75e-06, "MEAN_MOTION_DDOT": 0}, "tle": {"line1": "1 43226U 18022A   25345.54525471 -.00000175  00000+0  00000+0 0  9994", "line2": "2 43226   0.4571  89.1199 0003318 187.8173 270.3648  1.00271649 28542"}}, "geometry": {"type": "Point", "coordinates": [-27.62176698916859, -0.41062414105392137]}}, {"type": "Feature", "properties": {"norad_id": 43491, "name": "FENGYUN 2H", "group": "weather", "lat": 2.21055778663447, "lon": 141.14631885275844, "alt_km": 35789.45026838835, "timestamp": "2025-12-11T22:43:46.913463+00:00", "meta": {"OBJECT_NAME": "FENGYUN 2H", "OBJECT_ID": "2018-050A", "EPOCH": "2025-12-11T15:36:03.056832", "MEAN_MOTION": 1.00271106, "ECCENTRICITY": 0.00028748, "INCLINATION": 2.5484, "RA_OF_ASC_NODE": 81.3377, "ARG_OF_PERICENTER": 166.2639, "MEAN_ANOMALY": 146.3783, "EPHEMERIS_TYPE": 0, "CLASSIFICATION_TYPE": "U", "NORAD_CAT_ID": 43491, "ELEMENT_SET_NO": 999, "REV_AT_EPOCH": 2755, "BSTAR": 0, "MEAN_MOTION_DOT": -1.22e-06, "MEAN_MOTION_DDOT": 0}, "tle": {"line1": "1 43491U 18050A   25345.65003538 -.00000122  00000+0  00000+0 0  9998", "line2": "2 43491   2.5484  81.3377 0002874 166.2639 146.3783  1.00271106 27558"}}, "geometry": {"type": "Point", "coordinates": [141.14631885275844, 2.21055778663447]}}, {"type": "Feature", "properties": {"norad_id": 43689, "name": "METOP-C", "group": "weather", "lat": -26.63404104140086, "lon": -140.6716268705628, "alt_km": 826.9003029088171, "timestamp": "2025-12-11T22:43:46.913475+00:00", "meta": {"OBJECT_NAME": "METOP-C", "OBJECT_ID": "2018-087A", "EPOCH": "2025-12-11T15:00:08.228736", "MEAN_MOTION": 14.21483684, "ECCENTRICITY": 0.00012877, "INCLINATION": 98.6931, "RA_OF_ASC_NODE": 43.4119, "ARG_OF_PERICENTER": 40.5923, "MEAN_ANOMALY": 319.535, "EPHEMERIS_TYPE": 0, "CLASSIFICATION_TYPE": "U", "NORAD_CAT_ID": 43689, "ELEMENT_SET_NO": 999, "REV_AT_EPOCH": 36818, "BSTAR": 0.00011628051, "MEAN_MOTION_DOT": 2.11e-06, "MEAN_MOTION_DDOT": 0}, "tle": {"line1": "1 43689U 18087A   25345.62509524  .00000211  00000+0  11628-3 0  9990", "line2": "2 43689  98.6931  43.4119 0001287  40.5923 319.5350 14.21483684368184"}}, "geometry": {"type": "Point", "coordinates": [-140.6716268705628, -26.63404104140086]}}, {"type": "Feature", "properties": {"norad_id": 43823, "name": "GEO-KOMPSAT-2A", "group": "weather", "lat": 0.024558579856363283, "lon": -169.91010327043267, "alt_km": 35786.79813075828, "timestamp": "2025-12-11T22:43:46.913487+00:00", "meta": {"OBJECT_NAME": "GEO-KOMPSAT-2A", "OBJECT_ID": "2018-100A", "EPOCH": "2025-12-11T12:48:47.553408", "MEAN_MOTION": 1.00269165, "ECCENTRICITY": 7.11e-06, "INCLINATION": 0.0432, "RA_OF_ASC_NODE": 144.3131, "ARG_OF_PERICENTER": 330.9389, "MEAN_ANOMALY": 285.6913, "EPHEMERIS_TYPE": 0, "CLASSIFICATION_TYPE": "U", "NORAD_CAT_ID": 43823, "ELEMENT_SET_NO": 999, "REV_AT_EPOCH": 2574, "BSTAR": 0, "MEAN_MOTION_DOT": -3.37e-06, "MEAN_MOTION_DDOT": 0}, "tle": {"line1": "1 43823U 18100A   25345.53388372 -.00000337  00000+0  00000+0 0  9990", "line2": "2 43823   0.0432 144.3131 0000071 330.9389 285.6913  1.00269165 25743"}}, "geometry": {"type": "Point", "coordinates": [-169.91010327043267, 0.024558579856363283]}}, {"type": "Feature", "properties": {"norad_id": 44387, "name": "METEOR-M2 2", "group": "weather", "lat": -80.63476774391951, "lon": 37.43799545964155, "alt_km": 818.6858767142094, "timestamp": "2025-12-11T22:43:46.913498+00:00", "meta": {"OBJECT_NAME": "METEOR-M2 2", "OBJECT_ID": "2019-038A", "EPOCH": "2025-12-11T14:42:29.338848", "MEAN_MOTION": 14.24290532, "ECCENTRICITY": 0.00011854, "INCLINATION": 98.8974, "RA_OF_ASC_NODE": 325.3277, "ARG_OF_PERICENTER": 149.1429, "MEAN_ANOMALY": 210.9819, "EPHEMERIS_TYPE": 0, "CLASSIFICATION_TYPE": "U", "NORAD_CAT_ID": 44387, "ELEMENT_SET_NO": 999, "REV_AT_EPOCH": 33459, "BSTAR": 0.0001141674, "MEAN_MOTION_DOT": 2.18e-06, "MEAN_MOTION_DDOT": 0}, "tle": {"line1": "1 44387U 19038A   25345.61283957  .00000218  00000+0  11417-3 0  9994", "line2": "2 44387  98.8974 325.3277 0001185 149.1429 210.9819 14.24290532334593"}}, "geometry": {"type": "Point", "coordinates": [37.43799545964155, -80.63476774391951]}}, {"type": "Feature", "properties": {"norad_id": 47719, "name": "ARKTIKA-M 1", "group": "weather", "lat": 52.32585729300334, "lon": -136.74848937741962, "alt_km": 28499.9603468546, "timestamp": "2025-12-11T22:43:46.913511+00:00", "meta": {"OBJECT_NAME": "ARKTIKA-M 1", "OBJECT_ID": "2021-016A", "EPOCH": "2025-12-09T14:03:23.859648", "MEAN_MOTION": 2.00631311, "ECCENTRICITY": 0.7202538, "INCLINATION": 63.1769, "RA_OF_ASC_NODE": 84.4506, "ARG_OF_PERICENTER": 269.1116, "MEAN_ANOMALY": 15.6235, "EPHEMERIS_TYPE": 0, "CLASSIFICATION_TYPE": "U", "NORAD_CAT_ID": 47719, "ELEMENT_SET_NO": 999, "REV_AT_EPOCH": 3498, "BSTAR": 0, "MEAN_MOTION_DOT": -6.1e-07, "MEAN_MOTION_DDOT": 0}, "tle": {"line1": "1 47719U 21016A   25343.58569282 -.00000061  00000+0  00000+0 0  9996", "line2": "2 47719  63.1769  84.4506 7202538 269.1116  15.6235  2.00631311 34985"}}, "geometry": {"type": "Point", "coordinates": [-136.74848937741962, 52.32585729300334]}}, {"type": "Feature", "properties": {"norad_id": 49008, "name": "FENGYUN 3E", "group": "weather", "lat": -63.45508060237644, "lon": 148.52581390158375, "alt_km": 832.5661260942861, "timestamp": "2025-12-11T22:43:46.913524+00:00", "meta": {"OBJECT_NAME": "FENGYUN 3E", "OBJECT_ID": "2021-062A", "EPOCH": "2025-12-11T14:48:55.060416", "MEAN_MOTION": 14.1988068, "ECCENTRICITY": 5.708e-05, "INCLINATION": 98.7477, "RA_OF_ASC_NODE": 346.1516, "ARG_OF_PERICENTER": 275.7591, "MEAN_ANOMALY": 84.352, "EPHEMERIS_TYPE": 0, "CLASSIFICATION_TYPE": "U", "NORAD_CAT_ID": 49008, "ELEMENT_SET_NO": 999, "REV_AT_EPOCH": 22996, "BSTAR": 0.00016156819, "MEAN_MOTION_DOT": 2.99e-06, "MEAN_MOTION_DDOT": 0}, "tle": {"line1": "1 49008U 21062A   25345.61730394  .00000299  00000+0  16157-3 0  9996", "line2": "2 49008  98.7477 346.1516 0000570 275.7591  84.3520 14.19880680229964"}}, "geometry": {"type": "Point", "coordinates": [148.52581390158375, -63.45508060237644]}}, {"type": "Feature", "properties": {"norad_id": 51850, "name": "GOES 18", "group": "weather", "lat": -0.0008862490074231927, "lon": -75.16234456758579, "alt_km": 35783.306827936125, "timestamp": "2025-12-11T22:43:46.913536+00:00", "meta": {"OBJECT_NAME": "GOES 18", "OBJECT_ID": "2022-021A", "EPOCH": "2025-12-11T14:34:08.986080", "MEAN_MOTION": 1.00272159, "ECCENTRICITY": 6.925e-05, "INCLINATION": 0.0026, "RA_OF_ASC_NODE": 244.5041, "ARG_OF_PERICENTER": 65.7024, "MEAN_ANOMALY": 211.8956, "EPHEMERIS_TYPE": 0, "CLASSIFICATION_TYPE": "U", "NORAD_CAT_ID": 51850, "ELEMENT_SET_NO": 999, "REV_AT_EPOCH": 471, "BSTAR": 0, "MEAN_MOTION_DOT": 1.04e-06, "MEAN_MOTION_DDOT": 0}, "tle": {"line1": "1 51850U 22021A   25345.60704845  .00000104  00000+0  00000+0 0  9992", "line2": "2 51850   0.0026 244.5041 0000692  65.7024 211.8956  1.00272159  4711"}}, "geometry": {"type": "Point", "coordinates": [-75.16234456758579, -0.0008862490074231927]}}]}